COSMOS 2419 (714)       
1 28915U 05050A   16258.59404380  .00000050  00000-0  00000+0 0  9994
2 28915  65.3617  75.1462 0014818 359.5948 330.5845  2.13106475 83452
COSMOS 2425 (716)       
1 29670U 06062A   16258.71882226  .00000011  00000-0  10000-3 0  9992
2 29670  65.5919 314.1461 0019944 340.5392 141.2361  2.13104982 75666
COSMOS 2426 (717)       
1 29671U 06062B   16259.09134637  .00000011  00000-0  10000-3 0  9991
2 29671  65.6093 314.2176 0018631 170.5315  97.2888  2.13102983 75677
COSMOS 2424 (715)       
1 29672U 06062C   16259.18526932  .00000012  00000-0  10000-3 0  9996
2 29672  65.5940 314.1402 0018077 169.4184 346.5824  2.13102392 75678
COSMOS 2433 (720)       
1 32275U 07052A   16259.31813975  .00000047  00000-0  10000-3 0  9998
2 32275  65.3778  74.8943 0000966 195.6013 218.0452  2.13104817 69192
COSMOS 2432 (719)       
1 32276U 07052B   16258.44600358  .00000051  00000-0  10000-3 0  9996
2 32276  65.3903  74.9910 0010354 347.3874  70.8054  2.13104157 69178
COSMOS 2434 (721)       
1 32393U 07065A   16259.29480821  .00000012  00000-0  00000+0 0  9997
2 32393  65.2096 313.4060 0003987 143.2268 143.9024  2.13102952 67898
COSMOS 2436 (723)       
1 32395U 07065C   16259.28980936  .00000012  00000-0  10000-3 0  9995
2 32395  65.2222 313.4511 0015361 348.0355  27.2808  2.13102960 67830
COSMOS 2443 (725)       
1 33379U 08046B   16259.12558453  .00000047  00000-0  10000-3 0  9994
2 33379  65.3084  74.3079 0017116 179.6388 350.2220  2.13101141 62052
COSMOS 2456 (730)       
1 36111U 09070A   16258.98804190  .00000006  00000-0  00000+0 0  9994
2 36111  64.1816 192.9895 0005587 303.2595 278.4855  2.13103031 52555
COSMOS 2457 (733)       
1 36112U 09070B   16259.36571419  .00000008  00000-0  00000+0 0  9995
2 36112  64.1641 192.9019 0006472 179.5991 101.7211  2.13101776 52567
COSMOS 2458 (734)       
1 36113U 09070C   16259.30453640  .00000007  00000-0  10000-3 0  9999
2 36113  64.1696 192.9107 0001768 311.6054 330.4039  2.13101927 52565
COSMOS 2459 (731)       
1 36400U 10007A   16258.53484309  .00000049  00000-0  10000-3 0  9996
2 36400  65.2875  74.0604 0027161 357.6067  39.6977  2.13102273 50906
COSMOS 2461 (735)       
1 36401U 10007B   16258.73997229  .00000048  00000-0  10000-3 0  9998
2 36401  65.2794  74.0337 0008459  79.4215  25.8480  2.13102340 50904
COSMOS 2460 (732)       
1 36402U 10007C   16258.65677047  .00000048  00000-0  10000-3 0  9993
2 36402  65.2708  74.0127 0002373 102.6650 340.4689  2.13101844 50903
COSMOS 2465 (737)       
1 37138U 10041B   16259.38561360  .00000011  00000-0  00000+0 0  9994
2 37138  64.8085 313.5309 0036948 173.8552 226.0306  2.13103436 46990
COSMOS 2464 (736)       
1 37139U 10041C   16259.32929618  .00000011  00000-0  00000+0 0  9993
2 37139  64.8156 313.5294 0020571   9.8864 171.4014  2.13102674 46994
COSMOS 2471 (701K)      
1 37372U 11009A   16258.44616008  .00000049  00000-0  00000-0 0  9997
2 37372  65.2653  73.9684 0006773 222.9473 191.5002  2.13102796 43174
COSMOS 2474 (742)       
1 37829U 11055A   16258.65180595  .00000005  00000-0  00000+0 0  9996
2 37829  64.5055 193.4516 0009666 252.9378 291.8732  2.13101992 38548
COSMOS 2476 (744)       
1 37867U 11064A   16259.03499676  .00000007  00000-0  00000+0 0  9996
2 37867  64.4857 193.5167 0018695 247.3873 277.2627  2.13102061 37900
COSMOS 2477 (745)       
1 37868U 11064B   16259.52498981  .00000044  00000-0  10000-3 0  9995
2 37868  64.4951 193.5432 0016250 248.7619 111.0643  2.13105305 37883
COSMOS 2475 (743)       
1 37869U 11064C   16259.13789748  .00000007  00000-0  00000+0 0  9991
2 37869  64.5021 193.5446 0021812 273.5565 105.5014  2.13102267 37877
COSMOS 2485 (747)       
1 39155U 13019A   16259.37188375  .00000008  00000-0  00000+0 0  9999
2 39155  64.6550 193.4751 0018808 242.3860 225.8211  2.13102165 26382
COSMOS 2492 (754)       
1 39620U 14012A   16258.78471131  .00000047  00000-0  10000-3 0  9997
2 39620  65.1582  73.9845 0013413 339.7714  71.4568  2.13103588 19328
COSMOS 2500 (755)       
1 40001U 14032A   16258.53837628  .00000048  00000-0  00000-0 0  9991
2 40001  65.1017  74.0093 0005965 183.4108 262.4354  2.13102908 17538
COSMOS 2501 (702K)      
1 40315U 14075A   16258.70253957  .00000007  00000-0  00000+0 0  9996
2 40315  64.5801 314.9815 0019072 232.6363 139.9883  2.13101710 13948
COSMOS 2514 (751)       
1 41330U 16008A   16258.61786782  .00000048  00000-0  00000+0 0  9994
2 41330  64.9002  74.2199 0008480 201.0706 125.0223  2.13103484  4692
COSMOS 2516 (753)       
1 41554U 16032A   16259.43155613  .00000009  00000-0  00000+0 0  9990
2 41554  64.7622 314.6532 0013569 222.1761 262.4103  2.13101583  2326
